CORVUS BC4              
1 43767U 18099K   22247.79544696  .00001870  00000+0  17169-3 0  9993
2 43767  97.6099 310.8666 0011495  10.0321 350.1127 14.95973067204833
MOVE-II                 
1 43780U 18099Y   22248.17315357  .00004322  00000+0  36823-3 0  9994
2 43780  97.6177 313.7723 0012586   6.9982 353.1414 14.98218280204991
SPACEBEE-7              
1 43816U 18099BL  22247.69965554  .00002551  00000+0  22041-3 0  9999
2 43816  97.6202 314.0391 0012642 353.7142   6.3920 14.98035638204510
SPACEBEE-5              
1 43817U 18099BM  22248.15804179  .00011804  00000+0  89886-3 0  9998
2 43817  97.6250 317.9118 0005427 351.4314   8.6817 15.02221671204736
SPACEBEE-6              
1 43818U 18099BN  22248.13150263  .00005922  00000+0  48985-3 0  9994
2 43818  97.6237 315.5002 0010806 353.8425   6.2664 14.99236418204772
SHIELDS 1               
1 43850U 18104B   22248.03054313  .00004045  00000+0  16496-3 0  9992
2 43850  85.0319 359.3955 0012945 341.2356  18.8408 15.24036237206620
STF-1                   
1 43852U 18104D   22247.81055248  .00012464  00000+0  45542-3 0  9995
2 43852  85.0339 359.6044 0011777 353.7962   6.3135 15.27900427206655
ZACUBE-2                
1 43907U 18111AH  22248.20177150  .00007535  00000+0  27057-3 0  9999
2 43907  97.1779 131.6782 0020685 151.2605 328.2579 15.28738518205476
LUME 1                  
1 43908U 18111AJ  22247.65974599  .00010904  00000+0  35787-3 0  9993
2 43908  97.1794 132.9966 0019038 145.5376 214.7104 15.31583987205513
AOBA VELOX-IV           
1 43940U 19003J   22247.66604836  .00028719  00000+0  69597-3 0  9994
2 43940  97.1211 281.3480 0015552 209.7663 150.2700 15.40909872202318
MOVE-IIB                
1 44398U 19038N   22248.18131546  .00008809  00000+0  40963-3 0  9995
2 44398  97.6344 218.3643 0019618 205.7966 154.2326 15.20038146175141
SONATE                  
1 44400U 19038Q   22247.91679636  .00002981  00000+0  16157-3 0  9999
2 44400  97.6452 216.8362 0022172 215.3571 144.6191 15.15195631174963
LUCKY-7                 
1 44406U 19038W   22247.66618583  .00006010  00000+0  31263-3 0  9993
2 44406  97.6455 217.1877 0021270 213.0524 146.9381 15.16238169174969
BEESAT 9                
1 44412U 19038AC  22247.65170844  .00008511  00000+0  42197-3 0  9998
2 44412  97.6426 217.6006 0018551 215.3329 144.6676 15.17843889174705
JAISAT-1                
1 44419U 19038F   22247.67863559  .00008694  00000+0  42532-3 0  9994
2 44419  97.6427 218.5263 0017661 211.9910 148.0253 15.18315953175074
DUCHIFAT-3              
1 44854U 19089C   22247.67914035  .00002336  00000+0  18331-3 0  9996
2 44854  36.9680 350.5106 0007032 149.4847 354.0683 15.01484368149843
EYESAT-NANO             
1 44877U 19092E   22248.06954473  .00014408  00000+0  59932-3 0  9994
2 44877  97.4655  71.9613 0012449  79.1658 281.0979 15.23809331150480
ORBITAL FACTORY 2 (OF-2)
1 45113U 19071C   22247.81583005  .00040929  00000+0  74750-3 0  9998
2 45113  51.6372  27.8458 0008290 104.0106 256.1805 15.48956873145660
M2 PATHFINDER           
1 45727U 20037E   22247.48416552  .00000527  00000+0  57159-4 0  9993
2 45727  97.7408  61.5335 0013407 132.3413 227.8956 14.92183671118615
NETSAT-4                
1 46504U 20068U   22247.76844412  .00002301  00000+0  17186-3 0  9999
2 46504  97.7272 187.4360 0013491  62.5579 297.7024 15.03764342105963
NETSAT-3                
1 46505U 20068V   22247.78615382  .00002447  00000+0  18274-3 0  9994
2 46505  97.7261 187.3638 0012560  64.9605 295.2927 15.03705927105971
NETSAT-1                
1 46506U 20068W   22247.80547770  .00001150  00000+0  88461-4 0  9999
2 46506  97.7278 187.3066 0011400  74.7718 285.4772 15.03644771105979
NETSAT-2                
1 46507U 20068X   22247.81602567  .00001621  00000+0  12293-3 0  9999
2 46507  97.7280 187.3080 0011026  82.7360 277.5119 15.03635378105920
SAI-1 NANOCONNECT-2     
1 47701U 21015C   22248.19746445  .00014705  00000+0  52810-3 0  9991
2 47701  97.4185 324.7994 0011508 165.1961 194.9617 15.28705884 84396
BEESAT-6                
1 47957U 21022AB  22248.18795449  .00005502  00000+0  34679-3 0  9997
2 47957  97.5160 146.2452 0018181 231.4937 282.4069 15.09412479 79823
SMOG-1                  
1 47964U 21022AJ  22248.13557395  .00008865  00000+0  53479-3 0  9990
2 47964  97.5205 147.4117 0016895 218.1061 141.8975 15.10854581 78911
MMSATS-1                
1 47976U 98067SJ  22248.11532220  .00025082  00000+0  28333-3 0  9995
2 47976  51.6404 283.9027 0002223   2.2453  30.0137 15.62312926 82709
BCCSAT-1                
1 48041U 21022AK  22247.70323803  .00005895  00000+0  36664-3 0  9991
2 48041  97.5209 146.5087 0013514 216.5980 143.4327 15.09928003 78799
BEESAT-5                
1 48083U 21022AM  22248.17330058  .00006526  00000+0  40829-3 0  9999
2 48083  97.5149 146.2399 0018365 231.0783 289.6924 15.09606814 78950
BEESAT-7                
1 48084U 21022AN  22248.18028459  .00005950  00000+0  37386-3 0  9994
2 48084  97.5194 146.2502 0018263 231.1021 283.4446 15.09488508 78544
BEESAT-8                
1 48085U 21022AP  22248.18518916  .00004238  00000+0  26843-3 0  9991
2 48085  97.5163 146.2464 0018150 230.5274 283.2012 15.09361358 79109
RAMSAT                  
1 48850U 98067SL  22246.55620231  .00152689  00000+0  64501-3 0  9994
2 48850  51.6344 274.9442 0006642  25.2974 334.8353 15.84408214 69651
BD-28                   
1 48867U 98067SN  22248.03012954  .00761027  29236-3  11844-2 0  9993
2 48867  51.6191 259.7894 0007344  40.9225 319.2336 16.03460307 68733
BINAR-1                 
1 49272U 98067SR  22247.51759041  .00271273  00000+0  91267-3 0  9992
2 49272  51.6269 273.0294 0005863  20.0812 340.0423 15.88757687 52158
HSU-SAT1                
1 53462U 98067UB  22248.04374102  .00039477  00000+0  64652-3 0  9994
2 53462  51.6408 300.7242 0005630 224.8745 135.1791 15.52073295  3683
FUTABA                  
1 53463U 98067UC  22247.52658483  .00041504  00000+0  67457-3 0  9994
2 53463  51.6407 303.2708 0005537 224.2178 135.8370 15.52262563  3608
TUMNANOSAT              
1 53464U 98067UD  22247.52450367  .00047315  00000+0  76117-3 0  9995
2 53464  51.6406 303.2562 0005460 226.0988 133.9551 15.52489933  3602
